{
"type": "FeatureCollection",
"name": "drom_departements",
"crs": { "type": "name", "properties": { "name": "urn:ogc:def:crs:OGC:1.3:CRS84" } },
"features": [
{ "type": "Feature", "properties": { "nom": "Guadeloupe", "code": "971", "is_drom": true }, "geometry": { "type": "MultiPolygon", "coordinates": [ [ [ [ -61.323119287613999, 15.949610056251 ], [ -61.329502652724003, 15.896539036864 ], [ -61.278683242485997, 15.866954245142001 ], [ -61.233121045183999, 15.880256236855001 ], [ -61.202131378589002, 15.905461737534001 ], [ -61.201119066068003, 15.945734240556 ], [ -61.243967222942999, 15.991362102172999 ], [ -61.290717440168997, 16.003396665549001 ], [ -61.323119287613999, 15.949610056251 ] ] ], [ [ [ -61.782310728056999, 16.187698673935 ], [ -61.771038130405003, 16.134983618728 ], [ -61.770365179133002, 16.062038595876 ], [ -61.746384141374001, 16.010289503454 ], [ -61.711081796137002, 15.974061330382 ], [ -61.699976864828997, 15.946608000907 ], [ -61.633373008564, 15.966578095065 ], [ -61.575790078604001, 16.020636378388001 ], [ -61.555488483811999, 16.053015551687 ], [ -61.559272867917002, 16.092084828853 ], [ -61.589954732405999, 16.19514232053 ], [ -61.583788709917002, 16.233421956855 ], [ -61.560761742266997, 16.235300460642001 ], [ -61.550019360034, 16.277772438397001 ], [ -61.613531851882001, 16.267646357505001 ], [ -61.625741035676, 16.301573141310001 ], [ -61.712963053157999, 16.337326187592002 ], [ -61.744143374802, 16.361533370444 ], [ -61.773403433379002, 16.349526607133999 ], [ -61.800519333745001, 16.316330777533999 ], [ -61.805916719765001, 16.259643859084001 ], [ -61.786880779671002, 16.228081761209999 ], [ -61.782310728056999, 16.187698673935 ] ] ], [ [ [ -61.493484642449999, 16.353632236140999 ], [ -61.535584842212003, 16.331470545574 ], [ -61.546544027312997, 16.254137554781 ], [ -61.529473138568001, 16.215880724885999 ], [ -61.470299527980998, 16.198878805178001 ], [ -61.412584535743001, 16.211514386558999 ], [ -61.339283910696999, 16.241431947269 ], [ -61.288646228443, 16.244937626831 ], [ -61.245276226142003, 16.276257171512 ], [ -61.287885537827002, 16.321835113072002 ], [ -61.375881463550002, 16.341236378329 ], [ -61.401490611722998, 16.374373323823001 ], [ -61.398317086436997, 16.430469473942001 ], [ -61.411393040438, 16.469202448137999 ], [ -61.474006983834002, 16.510561842101001 ], [ -61.535458471539002, 16.454969086786999 ], [ -61.525750816257002, 16.394665043366999 ], [ -61.500178243663001, 16.384136281949001 ], [ -61.493484642449999, 16.353632236140999 ] ] ] ] } },
{ "type": "Feature", "properties": { "nom": "Martinique", "code": "972", "is_drom": true }, "geometry": { "type": "Polygon", "coordinates": [ [ [ -61.204045862119003, 14.861910321394999 ], [ -61.227145714297002, 14.804144542873001 ], [ -61.176553878817003, 14.741206403437999 ], [ -61.175726617879, 14.687118061095999 ], [ -61.137282989528003, 14.635303679983 ], [ -61.090645812729001, 14.599998317249 ], [ -61.040305188872999, 14.60391593682 ], [ -60.99108172719, 14.553047269922001 ], [ -61.013819988008002, 14.535047572925 ], [ -61.061206192908998, 14.550305932469 ], [ -61.094625288486, 14.523808604704 ], [ -61.082963712202002, 14.473394607531 ], [ -61.054725880599001, 14.454329517028 ], [ -61.020922746651003, 14.480525020461 ], [ -60.992686674098998, 14.466923865464 ], [ -60.928754602235003, 14.46427688124 ], [ -60.879719856896003, 14.447375295060001 ], [ -60.893181134700001, 14.419182699037 ], [ -60.858072685688001, 14.397929949606 ], [ -60.824508114183999, 14.440062378445999 ], [ -60.811039655526997, 14.478866750313999 ], [ -60.824198453144, 14.529533798735001 ], [ -60.872459934109997, 14.596311782028 ], [ -60.875284018255002, 14.620302986855 ], [ -60.937430570601997, 14.682213752172 ], [ -60.913015671956003, 14.69173294672 ], [ -60.961805266196002, 14.738043832302999 ], [ -60.968367784667997, 14.760494778495 ], [ -61.029651577789998, 14.827291831196 ], [ -61.056207720704997, 14.834031468362999 ], [ -61.126961080526002, 14.874512980565999 ], [ -61.165397709082001, 14.877461562138 ], [ -61.204045862119003, 14.861910321394999 ] ] ] } },
{ "type": "Feature", "properties": { "nom": "Guyane", "code": "973", "is_drom": true }, "geometry": { "type": "Polygon", "coordinates": [ [ [ -54.262866014258996, 5.2763794088942 ], [ -54.308110594490003, 5.2252720237556 ], [ -54.375341083789998, 5.1078641738779 ], [ -54.415499820176997, 5.0846792375844 ], [ -54.437853118554003, 5.0173013054688 ], [ -54.446120348108998, 4.9349698819465 ], [ -54.468973090113998, 4.8903634409371 ], [ -54.459970700728, 4.7777678336806 ], [ -54.466259120463, 4.7398423655057 ], [ -54.435414328774002, 4.7247764719879 ], [ -54.423668070639003, 4.6654462564097 ], [ -54.436351289991002, 4.6363040139953 ], [ -54.415241817172998, 4.606470441976 ], [ -54.425132424615001, 4.5562059347853 ], [ -54.450025872006002, 4.5258780813901 ], [ -54.432421475821997, 4.4679483152275 ], [ -54.440743069168001, 4.3727416650479 ], [ -54.411515590851998, 4.3736161163727 ], [ -54.385863609216003, 4.3492169782989 ], [ -54.394439769519003, 4.3065294022075 ], [ -54.382323935484997, 4.2632729375416 ], [ -54.395737232332003, 4.2021487209072 ], [ -54.325436701081003, 4.1501049388355 ], [ -54.344322701853002, 4.1134401961426 ], [ -54.357569123254002, 4.0501448068332 ], [ -54.318053687475, 4.0131453346459 ], [ -54.289965840760999, 3.9357646401218 ], [ -54.249189869496, 3.9088425216801 ], [ -54.236887910756998, 3.8604652052628 ], [ -54.196495701572999, 3.8513970777255 ], [ -54.197703785339002, 3.8054785208196 ], [ -54.130377462649001, 3.7999651237886 ], [ -54.078988830954998, 3.7064511774739 ], [ -54.082843031463, 3.6744072261806 ], [ -54.029407607233999, 3.6312126239581 ], [ -54.003189024934997, 3.6450872463876 ], [ -53.980580745948998, 3.6083254239515 ], [ -54.009265240273002, 3.5378210522926 ], [ -54.012133509677, 3.4270289843021 ], [ -54.059100725427001, 3.3783806592773 ], [ -54.064241525004, 3.3126532463437 ], [ -54.100466323302001, 3.3003723745283 ], [ -54.136293144424997, 3.2660090565619 ], [ -54.213840499038, 3.150181795143 ], [ -54.173671567916003, 3.1055950922194 ], [ -54.190672476849997, 3.069601251712 ], [ -54.170525159314003, 3.0200087540496 ], [ -54.181399227755001, 2.9837106825116 ], [ -54.172831071757003, 2.9385877115839 ], [ -54.193859317853999, 2.8872316981857 ], [ -54.179398860611002, 2.8585163824485 ], [ -54.206202149817003, 2.8285723038286 ], [ -54.208634295133002, 2.7766192112614 ], [ -54.264722357456002, 2.7231474019132 ], [ -54.280005701824997, 2.6665871925767 ], [ -54.317197260690001, 2.6268177831086 ], [ -54.322811724479998, 2.5928221383698 ], [ -54.352913073728999, 2.5185674985255 ], [ -54.419512495162998, 2.4368416979208 ], [ -54.471751404770998, 2.4354799412286 ], [ -54.504975070503001, 2.3910931323174 ], [ -54.509975123162, 2.3366484361267 ], [ -54.590443158543003, 2.3519263098488 ], [ -54.591821621649999, 2.3250026889434 ], [ -54.543056212929002, 2.326819850898 ], [ -54.538791838056, 2.2724582451497 ], [ -54.503743707825997, 2.2544224663441 ], [ -54.460827007844003, 2.2074672711924 ], [ -54.397791941011, 2.1968809499094 ], [ -54.363780895556999, 2.210337749774 ], [ -54.360668130739001, 2.1748995679326 ], [ -54.288233345492003, 2.147639261715 ], [ -54.224091361855002, 2.1497983892807 ], [ -54.190364396535003, 2.1710812617384 ], [ -54.159341789618999, 2.1234695547512 ], [ -54.112087753480999, 2.1175667170442 ], [ -54.085085613451, 2.1480232613709 ], [ -54.064369342985998, 2.1964307053103 ], [ -54.017342447745001, 2.1820834272769 ], [ -53.990362121068003, 2.2090984530074 ], [ -53.940896361565997, 2.2198377044822 ], [ -53.933611429336999, 2.269373712967 ], [ -53.885191189106997, 2.2750901153297 ], [ -53.882721158575002, 2.3087999802136 ], [ -53.813216041766999, 2.3113898276005 ], [ -53.796860642860999, 2.3614593214452 ], [ -53.741548012867, 2.3736469528128 ], [ -53.728945680109, 2.3108730297403 ], [ -53.669143748872997, 2.3036906508646 ], [ -53.657025775314999, 2.2812663260589 ], [ -53.604411697437001, 2.2806979473673 ], [ -53.544810038230999, 2.2530723689672 ], [ -53.498114464000999, 2.2593460010372 ], [ -53.464810284027998, 2.2521568558424 ], [ -53.433121033303998, 2.283085806162 ], [ -53.372089634125999, 2.3129994298218 ], [ -53.356331646393997, 2.347854992745 ], [ -53.317147438446, 2.3400825257566 ], [ -53.300865415293998, 2.3070281723707 ], [ -53.226655262078999, 2.2635898239707 ], [ -53.272039021182003, 2.2220586741672 ], [ -53.226086026734002, 2.2024681680332 ], [ -53.133851145649999, 2.2253471578289 ], [ -53.080261730773998, 2.2225309949581 ], [ -53.060001178204999, 2.1965567562092 ], [ -52.985700093695002, 2.1685716236534 ], [ -52.901038014396001, 2.1985554568938 ], [ -52.869842169080002, 2.2600459429836 ], [ -52.839445700591, 2.2910347300002 ], [ -52.793673355458999, 2.304434737563 ], [ -52.719470263204997, 2.3437646975718 ], [ -52.71041812416, 2.3585884729123 ], [ -52.660530608180999, 2.3739379262039 ], [ -52.655705959599999, 2.4059708306583 ], [ -52.616762222128003, 2.4756394764376 ], [ -52.551653756748998, 2.5208228326326 ], [ -52.561156784124996, 2.5502515931209 ], [ -52.527622266752999, 2.5810160208327 ], [ -52.555185359052999, 2.6402752946528 ], [ -52.529337734984999, 2.6541808625403 ], [ -52.478968658748002, 2.7531061394273 ], [ -52.473404092528, 2.7938522356518 ], [ -52.419837333975003, 2.893130985888 ], [ -52.39009288722, 2.8981695702437 ], [ -52.395079580663001, 2.9277883212834 ], [ -52.325894161671002, 3.0777731439101 ], [ -52.35162290697, 3.1234417939473 ], [ -52.330478173872997, 3.1677865447781 ], [ -52.299307558495002, 3.1781833835595 ], [ -52.292462780503001, 3.2263850399586 ], [ -52.259709946710998, 3.2530615508378 ], [ -52.233551819493002, 3.240650008421 ], [ -52.189028520897999, 3.3020164147496 ], [ -52.086775257939998, 3.4895404755011 ], [ -52.060359310551, 3.5196449891265 ], [ -52.019722377847998, 3.5930217371882 ], [ -51.988221624685998, 3.6276876173801 ], [ -51.986388862391003, 3.6725404631457 ], [ -51.955728054116001, 3.7204074665979 ], [ -51.923475741699001, 3.7226346395689 ], [ -51.920567066689003, 3.7800592760501 ], [ -51.873945573272998, 3.8031320774989 ], [ -51.856350283673002, 3.8326312859371 ], [ -51.798590836172998, 3.8869182263487 ], [ -51.782530259288997, 3.9207148928692 ], [ -51.782283451258998, 3.9640547240078 ], [ -51.745685993774003, 4.0014526708911 ], [ -51.675670135113002, 4.0360177099327 ], [ -51.656014792721997, 4.0538694849574 ], [ -51.626281726719, 4.1950661463654 ], [ -51.656192903346003, 4.2264093762853 ], [ -51.701558332227997, 4.2945431110295 ], [ -51.718383011835002, 4.3404128364733 ], [ -51.711834878194999, 4.3880250207713 ], [ -51.752328441826997, 4.4182125048386 ], [ -51.748665410740998, 4.4474547093187 ], [ -51.776548583924999, 4.4902031550085 ], [ -51.784567687490998, 4.5745213968512 ], [ -51.799483475822001, 4.6146485968912 ], [ -51.862390485143997, 4.6708003084052 ], [ -51.916024214319002, 4.668815539866 ], [ -52.006179250743003, 4.7017879541951 ], [ -52.017814365524004, 4.718335681359 ], [ -52.114831530205997, 4.7861670001622 ], [ -52.182576101399, 4.8205048122343 ], [ -52.200386562622, 4.8503002903876 ], [ -52.229082293874001, 4.8596017030659 ], [ -52.263040861811, 4.9141530948307 ], [ -52.304339285464003, 4.9508360234963 ], [ -52.335864576864999, 4.941815767051 ], [ -52.355881226457001, 4.9175124436249 ], [ -52.420186763604001, 4.9822303517225 ], [ -52.460314432395997, 5.0121214814072 ], [ -52.549456070124002, 5.100638613552 ], [ -52.577981537688999, 5.1085751366517 ], [ -52.627649173443999, 5.1462877582226 ], [ -52.666325683605002, 5.2002328688054 ], [ -52.722797114305997, 5.2368388833953 ], [ -52.769338288471999, 5.2788922211643 ], [ -52.788928709126999, 5.3079971259297 ], [ -52.831605639941003, 5.3332474094359 ], [ -52.855604184630998, 5.3778466084172 ], [ -52.956353875764997, 5.4555426531472 ], [ -53.014319515460002, 5.4553078164341 ], [ -53.074734826297998, 5.4701920560875 ], [ -53.130779622653002, 5.5067849920981 ], [ -53.269338109007997, 5.5522252558034 ], [ -53.308912384842003, 5.5384470957925 ], [ -53.403015077996997, 5.563665511641 ], [ -53.469174550353998, 5.5662346022297 ], [ -53.584393711158, 5.6094623546164 ], [ -53.647029326289001, 5.640302547715 ], [ -53.799234439704001, 5.7238817805039 ], [ -53.968340504126999, 5.7451588592873 ], [ -54.011948038878003, 5.663468313256 ], [ -54.003653891839001, 5.5730648768993 ], [ -54.018811786214997, 5.5214389206923 ], [ -54.037464776573998, 5.5101010755252 ], [ -54.117478116657999, 5.4173672800429 ], [ -54.147937185650001, 5.3626167245287 ], [ -54.208481979479998, 5.3032382892827 ], [ -54.262866014258996, 5.2763794088942 ] ] ] } },
{ "type": "Feature", "properties": { "nom": "La Réunion", "code": "974", "is_drom": true }, "geometry": { "type": "Polygon", "coordinates": [ [ [ 55.254153755609998, -21.109737804325 ], [ 55.286733275628997, -21.160641411697 ], [ 55.294129138862999, -21.230372705610002 ], [ 55.340820614137002, -21.280814644564 ], [ 55.390688251146997, -21.292159550605 ], [ 55.417433869019, -21.320149166717002 ], [ 55.609006957416, -21.386904617464999 ], [ 55.670862413982, -21.383821728156001 ], [ 55.760772415062, -21.363569944645999 ], [ 55.807295563556998, -21.336761171791 ], [ 55.802020994800998, -21.257819143119001 ], [ 55.836628265464, -21.183406142410998 ], [ 55.826736952167998, -21.145764202904001 ], [ 55.780072832563, -21.121889982216999 ], [ 55.707788812225999, -21.028026265196001 ], [ 55.700683666125002, -20.978611757202 ], [ 55.664378168675, -20.925161312912 ], [ 55.592451795184999, -20.895958362666999 ], [ 55.541560144133001, -20.894673470410002 ], [ 55.502874187822997, -20.882269385646001 ], [ 55.421141873335003, -20.874440484522001 ], [ 55.394036917298003, -20.882986388174 ], [ 55.325052994639002, -20.929558227373999 ], [ 55.278230841480003, -20.952052399071 ], [ 55.274828812396002, -21.003236502391001 ], [ 55.217135411092002, -21.036469853463998 ], [ 55.221239445979002, -21.078095020713 ], [ 55.254153755609998, -21.109737804325 ] ] ] } },
{ "type": "Feature", "properties": { "nom": "Mayotte", "code": "976", "is_drom": true }, "geometry": { "type": "Polygon", "coordinates": [ [ [ 45.051579894615998, -12.701683919701001 ], [ 45.042555902182997, -12.74425409186 ], [ 45.094597815607997, -12.784476844891 ], [ 45.101840094270003, -12.844935426206 ], [ 45.155020845480998, -12.922367959259001 ], [ 45.107171038475997, -12.924123663510001 ], [ 45.110903575865002, -12.986319828261999 ], [ 45.151160858074, -12.998575900280001 ], [ 45.168847835552, -12.949614161896999 ], [ 45.217302370276002, -12.877716700128 ], [ 45.187549220664003, -12.838455174846001 ], [ 45.235982117185998, -12.781399617949999 ], [ 45.235936162930003, -12.752704117255 ], [ 45.204855030239997, -12.730812886526 ], [ 45.125443767660997, -12.727340200841001 ], [ 45.126816332254002, -12.70142442411 ], [ 45.089875165057997, -12.667509550167001 ], [ 45.051579894615998, -12.701683919701001 ] ] ] } }
]
}
